id,spkid,full_name,pdes,name,prefix,neo,pha,H,diameter,albedo,diameter_sigma,orbit_id,epoch,epoch_mjd,epoch_cal,equinox,e,a,q,i,om,w,ma,ad,n,tp,tp_cal,per,per_y,moid,moid_ld,sigma_e,sigma_a,sigma_q,sigma_i,sigma_om,sigma_w,sigma_ma,sigma_ad,sigma_n,sigma_tp,sigma_per,class,rms
a0016438,2016438, 16438 Knofel (1989 AU6),16438,Knofel,,N,N,14.1,10.651,0.048,1.326,JPL 27,2459000.5,59000,20200531.0,J2000,0.0552855990921673,2.734628971261337,2.583443370290356,4.595723720197118,310.7498875884004,118.4567877293208,29.89340627681486,2.885814572232317,0.2179497916297871,2458863.342693937,20200114.8426939,1651.756568831695,4.52226302212647,1.6017,623.333589,3.3921e-08,1.1665e-08,9.5292e-08,3.5833e-06,4.8209e-05,6.4371e-05,4.0292e-05,1.231e-08,1.3946e-09,0.00018494,1.0569e-05,MBA,0.53088
a0455023,2455023,455023 (2015 TV325),455023,,,N,N,15.7,,,,JPL 10,2459000.5,59000,20200531.0,J2000,0.1716958669746391,3.097364150117151,2.565559527026621,9.9733067307873,124.3404383704727,189.4627298558274,0.496551134335869,3.629168773207682,0.180807180065429,2458997.753697921,20200528.2536979,1991.071371555744,5.45125632185009,1.55206,604.0151902,6.3697e-08,6.6563e-08,2.3487e-07,5.6501e-06,4.9254e-05,5.6729e-05,2.7648e-05,7.7991e-08,5.8284e-09,0.00015293,6.4183e-05,MBA,0.50745
a0022580,2022580, 22580 Kenkaplan (1998 HB67),22580,Kenkaplan,,N,N,15.5,3.659,0.092,1.088,23,2459000.5,59000,20200531.0,J2000,0.1339168447930568,2.258546910248543,1.95608943421095,3.371473379227873,184.2372166627187,234.0140834624888,327.2193073201842,2.561004386286135,0.2903757876887067,2459113.390585474,20200920.8905855,1239.772788445891,3.39431290471154,0.970318,377.61865606,3.9786e-08,9.7871e-09,9.0559e-08,5.1912e-06,6.5542e-05,6.8043e-05,1.8761e-05,1.1098e-08,1.8875e-09,6.4874e-05,8.0586e-06,MBA,0.56699
a0007454,2007454,  7454 Kevinrighter (1981 EW20),7454,Kevinrighter,,N,N,13.4,11.746,0.056,0.138,JPL 28,2459000.5,59000,20200531.0,J2000,0.1466753202674648,3.160988940331047,2.697349875146076,0.8987090840304044,14.00085204322456,308.6708247287033,207.5350715887413,3.624628005516017,0.1753757774934719,2459869.861382685,20221017.3613827,2052.735019312461,5.62008218839825,1.68505,655.7709085,4.3481e-08,1.7922e-08,1.3822e-07,5.0408e-06,0.00023581,0.00023623,1.6041e-05,2.055e-08,1.4915e-09,9.4159e-05,1.7458e-05,MBA,0.52141
a0493273,2493273,493273 (2014 UZ141),493273,,,N,N,18.7,,,,9,2459000.5,59000,20200531.0,J2000,0.1501690623086983,2.329667740981057,1.979823720827108,3.096817268330427,303.5907950104901,145.3895277283329,168.7262014727907,2.679511761135005,0.2771807687024699,2458391.7773881727,20180930.2773882,1298.79140492041,3.55589707028175,0.997251,388.10017167,7.372e-08,3.1048e-08,1.6803e-07,7.8982e-06,0.00019126,0.00019855,4.9471e-05,3.5711e-08,5.5411e-09,0.0001744,2.5964e-05,MBA,0.51027
a0003623,2003623,  3623 Chaplin (1981 TG2),3623,Chaplin,,N,N,12.1,9.887,0.263,1.614,JPL 68,2459000.5,59000,20200531.0,J2000,0.0831468137281422,2.852487731781776,2.615312465685506,3.072114184961618,118.1047204516745,235.1883820446375,43.15014123050332,3.089662997878046,0.2045824597913095,2458789.581912132,20191102.0819121,1759.68164801239,4.81774578511264,1.61127,627.0579459,3.2509e-08,1.1195e-08,9.5138e-08,3.5406e-06,5.9397e-05,6.2729e-05,1.9332e-05,1.2126e-08,1.2044e-09,9.4598e-05,1.0359e-05,MBA,0.45193
a0001532,2001532,  1532 Inari (1938 SM),1532,Inari,,N,N,10.8,24.439,0.078,0.056,JPL 33,2459000.5,59000,20200531.0,J2000,0.0510067039276076,3.005249068479476,2.851961219014825,8.778205738579286,330.6070408733716,122.992583831963,154.9921564894353,3.158536917944128,0.1891835484352395,2458181.2313174354,20180303.7313174,1902.913879021746,5.20989426152429,1.88015,731.6979755,4.1214e-08,1.4204e-08,1.2105e-07,5.3527e-06,2.9868e-05,6.656e-05,5.7944e-05,1.4928e-08,1.3412e-09,0.00030543,1.3491e-05,MBA,0.43867
a0012364,2012364, 12364 Asadagouryu (1993 XQ1),12364,Asadagouryu,,N,N,15.0,2.81,0.245,0.116,JPL 27,2459000.5,59000,20200531.0,J2000,0.0517646801117798,2.165484521628578,2.053388908079464,2.161777172492409,204.3016268204719,200.2865699653416,157.3181348788476,2.277580135177692,0.3092939664815471,2458491.8637124305,20190108.3637124,1163.941230717406,3.18669741469516,1.06188,413.2518396,4.0435e-08,4.9876e-09,8.76e-08,4.3838e-06,7.0281e-05,7.6177e-05,2.8888e-05,5.2458e-09,1.0686e-09,9.3221e-05,4.0212e-06,MBA,0.51705
a0210182,2210182,210182 Mazzini (2006 UE215),210182,Mazzini,,N,N,15.0,6.869,0.041,0.205,JPL 16,2459000.5,59000,20200531.0,J2000,0.0095991474970413,3.24129052030432,3.210176894519157,13.82755660749453,230.5282934189005,346.7469503301152,282.9222606112382,3.272404146089483,0.1688990221940301,2459456.853970481,20210830.3539705,2131.451060660579,5.83559496416312,2.20066,856.4308522,5.4372e-08,3.7505e-08,1.8796e-07,6.0571e-06,2.1678e-05,0.00028425,0.00028411,3.7865e-08,2.9315e-09,0.0016836,3.6995e-05,OMB,0.53382
a0006056,2006056,  6056 Donatello (2318 T-3),6056,Donatello,,N,N,13.6,12.39,0.05,0.203,JPL 32,2459000.5,59000,20200531.0,J2000,0.2213868962432221,2.714944237353553,2.113891159172428,3.176544128973805,224.068350030688,11.74931235505802,321.1449273421622,3.315997315534678,0.2203244541973612,2459176.8538813675,20201123.3538814,1633.953894548269,4.47352195632654,1.10252,429.0677084,3.57e-08,9.8668e-09,9.836e-08,4.056e-06,6.0014e-05,6.0508e-05,7.7087e-06,1.2051e-08,1.2011e-09,3.5332e-05,8.9073e-06,MBA,0.46457
bK09W72O,3479542,       (2009 WO72),2009 WO72,,,N,N,18.8,,,,JPL 5,2459000.5,59000,20200531.0,J2000,0.206869806364017,2.451016680750105,1.943975334608355,3.864540787301022,87.16672180029363,309.548798022366,283.1303611956248,2.958058026891855,0.25685301830235,2459299.774812157,20210326.2748122,1401.579792129335,3.83731633710975,0.95406,371.2915302,1.6267e-05,4.5838e-06,3.6238e-05,6.4077e-05,0.00029989,0.0034305,0.0052728,5.532e-06,7.2053e-07,0.021368,0.0039318,MBA,0.45811
a0331574,2331574,331574 (2001 QW226),331574,,,N,N,16.9,,,,JPL 14,2459000.5,59000,20200531.0,J2000,0.167883722267081,2.408479277724861,2.00413481157728,5.392907147642026,266.8027542535867,69.71849867912927,11.44112518852419,2.812823743872441,0.2636875972070026,2458957.1110605514,20200417.6110606,1365.251926192756,3.73785606076045,1.00213,389.9989321,5.7623e-08,1.5587e-08,1.4415e-07,5.4032e-06,6.2177e-05,6.4361e-05,1.9149e-05,1.8204e-08,2.5598e-09,7.2373e-05,1.3254e-05,MBA,0.63468
a0192208,2192208,192208 Tzu Chi (2007 JX33),192208,Tzu Chi,,N,N,14.9,6.77,0.051,0.18,12,2459000.5,59000,20200531.0,J2000,0.0354700027115082,3.162693094288323,3.050512361658248,10.73375978870535,53.60507471536481,225.1486778904182,78.04648224726033,3.274873826918398,0.1752340499911363,2458555.1157710147,20190312.615771,2054.395250342097,5.62462765322956,2.04481,795.7787077,4.9474e-08,4.4271e-08,1.7287e-07,7.3002e-06,3.8872e-05,0.0001327,0.00012722,4.5841e-08,3.6794e-09,0.00072552,4.3136e-05,MBA,0.54375
a0166749,2166749,166749 Sesar (2002 TV366),166749,Sesar,,N,N,15.0,6.487,0.046,0.367,JPL 20,2459000.5,59000,20200531.0,J2000,0.194417099537972,3.141091060553027,2.530409247175655,13.1880932006362,175.5416363781769,218.4440800653689,48.52887009140112,3.751772873930399,0.1770448440629216,2458726.3950389195,20190830.8950389,2033.383134682285,5.56709961583103,1.54974,603.1123158,5.1163e-08,2.0292e-08,1.5893e-07,4.9351e-06,2.3116e-05,2.6743e-05,1.1202e-05,2.4238e-08,1.7156e-09,6.3088e-05,1.9704e-05,MBA,0.50288
a0107074,2107074,107074 Ansonsylva (2001 AJ19),107074,Ansonsylva,,N,N,16.3,1.343,0.39,0.168,JPL 25,2459000.5,59000,20200531.0,J2000,0.1265027606091407,2.171085726059048,1.896437388193478,2.454412950409545,67.79440182162662,333.9211600446853,96.13408776786224,2.445734063924618,0.3080978131955396,2458688.475429716,20190723.9754297,1168.460094754128,3.19906939015504,0.905193,352.27395981,3.321e-08,8.6532e-09,7.2005e-08,4.1575e-06,0.00011397,0.00011625,2.4582e-05,9.7478e-09,1.842e-09,7.8828e-05,6.9856e-06,MBA,0.52217
a0025538,2025538, 25538 Markcarlson (1999 XN158),25538,Markcarlson,,N,N,14.5,3.631,0.28,0.195,JPL 35,2459000.5,59000,20200531.0,J2000,0.1626504524492007,2.590518606714337,2.169169583254177,5.473439206741292,108.9798768482919,153.5592045731831,142.4462877600184,3.011867630174498,0.2363872236297131,2458397.90276326,20181006.4027633,1522.924946924878,4.16954126468139,1.1551,449.530267,3.2072e-08,9.8408e-09,8.2876e-08,2.9864e-06,4.7776e-05,4.9322e-05,1.2767e-05,1.1441e-08,1.347e-09,5.327e-05,8.6779e-06,MBA,0.50749
a0018161,2018161, 18161 Koshiishi (2000 PZ12),18161,Koshiishi,,N,N,12.3,11.87,0.119,0.025,JPL 30,2459000.5,59000,20200531.0,J2000,0.0982030215126374,2.99960620588636,2.705035813120261,9.560120198715556,0.5578879568270292,5.511779176334246,312.5206941368268,3.294176598652459,0.1897176378794527,2459250.76300345,20210205.2630034,1897.556832479358,5.19522746743151,1.70331,662.8771527,5.1259e-08,2.065e-08,1.6244e-07,5.0455e-06,2.48e-05,3.2721e-05,2.236e-05,2.2678e-08,1.9591e-09,0.00011885,1.9595e-05,MBA,0.40183
a0009744,2009744,  9744 Nielsen (1988 JW),9744,Nielsen,,N,N,13.6,4.653,0.316,0.064,JPL 29,2459000.5,59000,20200531.0,J2000,0.3008329272250801,2.610290485445264,1.82502915780099,13.57916444387227,108.6230310273216,134.753232486148,180.5192867794259,3.395551813089539,0.2337065117851425,2459768.4748067334,20220707.9748067,1540.393535679336,4.21736765415287,0.837544,325.94699848,4.1802e-08,1.1367e-08,1.0725e-07,4.1267e-06,1.817e-05,1.9137e-05,9.1274e-06,1.4786e-08,1.5265e-09,4.2304e-05,1.0062e-05,MBA,0.48661
a0000654,2000654,   654 Zelinda (1908 BM),654,Zelinda,,N,N,8.52,160.736,0.027,1.342,JPL 102,2459000.5,59000,20200531.0,J2000,0.2309674409429993,2.297239513326676,1.766651981700472,18.12597725675609,278.4436885237267,213.9496382547552,88.38145901414659,2.827827044952879,0.2830705295537446,2458688.275837515,20190723.7758375,1271.767854348996,3.4819106210787,0.804861,313.22775537,1.957e-08,3.088e-09,4.5183e-08,3.4021e-06,1.0006e-05,1.1522e-05,7.0958e-06,3.8013e-09,5.7077e-10,2.4657e-05,2.5643e-06,MBA,0.45531
